{
    "links": {
        "self": "http://www.neowsapp.com/rest/v1/neo/54017289?api_key=iIulBulltgU6a56xZRHN4H3l9WmuAYTsLGpBGhQ2"
    },
    "id": "54017289",
    "neo_reference_id": "54017289",
    "name": "(2020 KK6)",
    "designation": "2020 KK6",
    "nasa_jpl_url": "http://ssd.jpl.nasa.gov/sbdb.cgi?sstr=54017289",
    "absolute_magnitude_h": 24.489,
    "estimated_diameter": {
        "kilometers": {
            "estimated_diameter_min": 0.0336321767,
            "estimated_diameter_max": 0.0752038334
        },
        "meters": {
            "estimated_diameter_min": 33.6321767398,
            "estimated_diameter_max": 75.2038334215
        },
        "miles": {
            "estimated_diameter_min": 0.0208980593,
            "estimated_diameter_max": 0.0467294812
        },
        "feet": {
            "estimated_diameter_min": 110.341790735,
            "estimated_diameter_max": 246.7317448426
        }
    },
    "is_potentially_hazardous_asteroid": false,
    "close_approach_data": [
        {
            "close_approach_date": "2020-06-09",
            "close_approach_date_full": "2020-Jun-09 00:55",
            "epoch_date_close_approach": 1591664100000,
            "relative_velocity": {
                "kilometers_per_second": "12.0731603703",
                "kilometers_per_hour": "43463.3773331243",
                "miles_per_hour": "27006.4524323516"
            },
            "miss_distance": {
                "astronomical": "0.0945937532",
                "lunar": "36.7969699948",
                "kilometers": "14151023.994025684",
                "miles": "8793038.5712710792"
            },
            "orbiting_body": "Earth"
        }
    ],
    "orbital_data": {
        "orbit_id": "1",
        "orbit_determination_date": "2020-05-29 16:12:05",
        "first_observation_date": "2020-05-28",
        "last_observation_date": "2020-05-29",
        "data_arc_in_days": 1,
        "observations_used": 21,
        "orbit_uncertainty": "8",
        "minimum_orbit_intersection": ".0907878",
        "jupiter_tisserand_invariant": "4.354",
        "epoch_osculation": "2458998.5",
        "eccentricity": ".3341149388619938",
        "semi_major_axis": "1.533390110021673",
        "inclination": "20.13182095504592",
        "ascending_node_longitude": "70.61081016055144",
        "orbital_period": "693.5494212022149",
        "perihelion_distance": "1.021061567160196",
        "perihelion_argument": "229.8647619185084",
        "aphelion_distance": "2.04571865288315",
        "perihelion_time": "2459050.560191866583",
        "mean_anomaly": "332.9771686068419",
        "mean_motion": ".5190689934914335",
        "equinox": "J2000",
        "orbit_class": {
            "orbit_class_type": "AMO",
            "orbit_class_description": "Near-Earth asteroid orbits similar to that of 1221 Amor",
            "orbit_class_range": "1.017 AU < q (perihelion) < 1.3 AU"
        }
    },
    "is_sentry_object": false
}